     2.11           N: GPS NAV DATA                         RINEX VERSION / TYPE
teqc  2019Feb25                         20221121 12:23:44UTCPGM / RUN BY / DATE
OSX ker:10.11.6|Core i5|gcc 4.3 -m64|OSX ker:10.10+|=+      COMMENT
    6.5193D-09  2.2352D-08 -5.9605D-08 -1.1921D-07          ION ALPHA
    8.6016D+04  9.8304D+04 -6.5536D+04 -5.2429D+05          ION BETA
   -1.862645149231D-09-7.993605777301D-15   233472     1534 DELTA-UTC: A0,A1,T,W
                                                            END OF HEADER
29 09  6  1  0  0  0.0 2.570077776909D-05 3.751665644813D-12 0.000000000000D+00
    1.040000000000D+02-1.468750000000D+01 4.434113270044D-09-2.260836622657D+00
   -9.089708328247D-07 3.430151147768D-03 1.036562025547D-05 5.153676774979D+03
    8.640000000000D+04 3.725290298462D-08-1.541904099958D+00 6.332993507385D-08
    9.595848874080D-01 1.788125000000D+02-1.318839041728D+00-7.875328039024D-09
   -2.767972440020D-10 1.000000000000D+00 1.534000000000D+03 0.000000000000D+00
    2.800000000000D+00 0.000000000000D+00-8.847564458847D-09 1.040000000000D+02
    7.921800000000D+04 4.000000000000D+00
31 09  6  1  0  0  0.0-6.143702194095D-05-7.958078640513D-13 0.000000000000D+00
    6.700000000000D+01 2.334375000000D+01 4.479472302287D-09-1.472240104870D+00
    1.277774572372D-06 7.046713493764D-03 7.767230272293D-06 5.153722166061D+03
    8.640000000000D+04-1.396983861923D-07 2.619911039937D+00 6.891787052155D-08
    9.730190879563D-01 2.419687500000D+02-1.139833203702D+00-8.117838140543D-09
    4.096599211229D-10 1.000000000000D+00 1.534000000000D+03 0.000000000000D+00
    2.000000000000D+00 0.000000000000D+00-1.303851604462D-08 6.700000000000D+01
    7.921800000000D+04 4.000000000000D+00
16 09  6  1  0  0  0.0 4.606926813722D-05-3.410605131648D-12 0.000000000000D+00
    5.400000000000D+01-4.368750000000D+01 4.800199947595D-09 2.548694327006D+00
   -2.052634954453D-06 5.363159929402D-03 6.308779120445D-06 5.153552131653D+03
    8.640000000000D+04-6.519258022308D-08-2.592547603454D+00 2.179294824600D-07
    9.685545677283D-01 2.636562500000D+02-3.513055937452D-01-8.207484731826D-09
   -1.042900583853D-10 1.000000000000D+00 1.534000000000D+03 0.000000000000D+00
    2.000000000000D+00 0.000000000000D+00-9.778887033463D-09 5.400000000000D+01
    7.921800000000D+04 4.000000000000D+00
13 09  6  1  0  0  0.0 2.984097227454D-04 7.958078640513D-13 0.000000000000D+00
    4.200000000000D+01-3.281250000000D+01 3.595149752418D-09 1.033615258476D+00
   -1.678243279457D-06 4.147599800490D-03 9.760260581970D-06 5.153706962585D+03
    8.640000000000D+04-5.587935447693D-08 1.632039585480D+00-3.911554813385D-08
    9.946776223041D-01 2.061250000000D+02 1.577729916270D+00-7.746394096979D-09
   -5.357366012941D-12 1.000000000000D+00 1.534000000000D+03 0.000000000000D+00
    2.000000000000D+00 0.000000000000D+00-1.117587089539D-08 4.200000000000D+01
    7.921800000000D+04 4.000000000000D+00
25 09  6  1  0  0  0.0 4.406347870827D-04 1.887201506179D-11 0.000000000000D+00
    4.700000000000D+01 2.018750000000D+01 4.373753612965D-09-3.131094984594D+00
    1.022592186928D-06 1.140550628770D-02 8.424744009972D-06 5.153652656555D+03
    8.640000000000D+04 2.067536115646D-07 2.527543218960D+00 1.937150955200D-07
    9.698534429517D-01 2.171250000000D+02-1.207365560376D+00-7.898186134012D-09
    4.407326439980D-10 1.000000000000D+00 1.534000000000D+03 0.000000000000D+00
    2.800000000000D+00 0.000000000000D+00-7.450580596924D-09 4.700000000000D+01
    7.921800000000D+04 4.000000000000D+00
 6 09  6  1  0  0  0.0 1.445426605642D-04 1.421085471520D-11 0.000000000000D+00
    4.800000000000D+01-2.418750000000D+01 5.101641075257D-09 2.520927656173D+00
   -1.110136508942D-06 5.996222142130D-03 1.036189496517D-05 5.153709506989D+03
    8.640000000000D+04 1.322478055954D-07-1.613515130753D+00-5.587935447693D-08
    9.334261946848D-01 1.575625000000D+02-1.356301487401D+00-8.239271770169D-09
   -3.653723620826D-10 1.000000000000D+00 1.534000000000D+03 0.000000000000D+00
    2.000000000000D+00 0.000000000000D+00-4.656612873077D-09 4.800000000000D+01
    7.932600000000D+04 4.000000000000D+00
21 09  6  1  0  0  0.0 1.089740544558D-05-2.046363078989D-12 0.000000000000D+00
    6.400000000000D+01 6.631250000000D+01 4.978778814693D-09-2.265577381317D+00
    3.239139914513D-06 1.530122477561D-02 7.681548595428D-06 5.153613037109D+03
    8.640000000000D+04 1.676380634308D-08-5.017438981387D-01-1.341104507446D-07
    9.341941432901D-01 2.178437500000D+02-2.598757677534D+00-8.153911071697D-09
    2.514390448740D-10 1.000000000000D+00 1.534000000000D+03 0.000000000000D+00
    2.000000000000D+00 0.000000000000D+00-1.210719347000D-08 6.400000000000D+01
    7.944600000000D+04 4.000000000000D+00
10 09  6  1  0  0  0.0-1.684017479420D-05-5.684341886081D-13 0.000000000000D+00
    3.000000000000D+01 5.437500000000D+00 4.705553148033D-09 1.342076930731D+00
    2.905726432800D-07 8.587992168032D-03 4.759058356285D-06 5.153608053207D+03
    8.640000000000D+04-8.568167686462D-08 5.508417432153D-01 3.725290298462D-09
    9.584616574438D-01 2.887812500000D+02 6.263963783692D-01-8.387492229861D-09
   -1.925080187317D-10 1.000000000000D+00 1.534000000000D+03 0.000000000000D+00
    2.000000000000D+00 0.000000000000D+00-2.793967723846D-09 3.000000000000D+01
    8.010600000000D+04 4.000000000000D+00
 7 09  6  1  0  0  0.0 1.788977533579D-05-6.821210263297D-13 0.000000000000D+00
    5.600000000000D+01 1.903125000000D+01 4.551261006861D-09-1.293780189835D+00
    8.270144462585D-07 2.607666421682D-03 8.050352334976D-06 5.153667888641D+03
    8.640000000000D+04 8.754432201386D-08 2.622010039185D+00-4.842877388000D-08
    9.676473727286D-01 2.279375000000D+02 2.877844692069D+00-8.149268021152D-09
    4.514473760239D-10 1.000000000000D+00 1.534000000000D+03 0.000000000000D+00
    2.000000000000D+00 0.000000000000D+00-1.071020960808D-08 5.600000000000D+01
    8.091600000000D+04 4.000000000000D+00
 3 09  6  1  0  0  0.0 4.005585797131D-04 5.115907697473D-12 0.000000000000D+00
    5.000000000000D+01-2.834375000000D+01 5.426297455641D-09 7.324966435397D-02
   -1.305714249611D-06 1.187742070761D-02 9.907409548759D-06 5.153636215210D+03
    8.640000000000D+04-1.676380634308D-08-1.681166684529D+00 1.452863216400D-07
    9.259535725630D-01 1.659687500000D+02 9.011001041277D-01-8.666432420268D-09
   -3.739441477033D-10 1.000000000000D+00 1.534000000000D+03 0.000000000000D+00
    2.800000000000D+00 0.000000000000D+00-4.190951585770D-09 5.000000000000D+01
    8.097600000000D+04 4.000000000000D+00
 8 09  6  1  0  0  0.0-2.056858502328D-04-1.705302565824D-12 0.000000000000D+00
    7.300000000000D+01 1.400000000000D+01 4.111956993800D-09-2.020251304947D+00
    5.941838026047D-07 1.059625588823D-02 8.279457688332D-06 5.153645507812D+03
    8.640000000000D+04-1.508742570877D-07 2.682443752652D+00-2.514570951462D-07
    9.888758501227D-01 2.401875000000D+02 2.991624035138D+00-7.851398470833D-09
    4.525188492264D-10 1.000000000000D+00 1.534000000000D+03 0.000000000000D+00
    2.800000000000D+00 0.000000000000D+00-3.725290298462D-09 7.300000000000D+01
    8.577600000000D+04 4.000000000000D+00
